#aV2023  7 15  0  0  0.00000000     288 DD+AD WGS84 FIT  NGA
## 2270 518400.00000000   300.00000000 60140 0.0000000000000
+   32     1  2  3  4  5  6  7  8  9 10 11 12 13 14 15 16 17
+         18 19 20 21 22 23 24 25 26 27 28 29 30 31 32  0  0
+          0  0  0  0  0  0  0  0  0  0  0  0  0  0  0  0  0
+          0  0  0  0  0  0  0  0  0  0  0  0  0  0  0  0  0
+          0  0  0  0  0  0  0  0  0  0  0  0  0  0  0  0  0
++         2  2  2  2  2  2  2  2  2  2  2  2  2  2  2  2  2
++         2  2  2  2  2  2  2  2  2  2  2  2  2  2  2  0  0
++         0  0  0  0  0  0  0  0  0  0  0  0  0  0  0  0  0
++         0  0  0  0  0  0  0  0  0  0  0  0  0  0  0  0  0
++         0  0  0  0  0  0  0  0  0  0  0  0  0  0  0  0  0
%c cc cc ccc ccc cccc cccc cccc cccc ccccc ccccc ccccc ccccc
%c cc cc ccc ccc cccc cccc cccc cccc ccccc ccccc ccccc ccccc
%f  0.0000000  0.000000000  0.00000000000  0.000000000000000
%f  0.0000000  0.000000000  0.00000000000  0.000000000000000
%i    0    0    0    0      0      0      0      0         0
%i    0    0    0    0      0      0      0      0         0
/*      NGA, ST. LOUIS,MO.                                  
/*   EPHEMERIS COMPUTED FROM 2 DAYS OF DATA                 
/*   EPOCHA v8 SMOOTHER                                     
/*   G2139 IERS2010 SATIGS SATAPC                           
*  2023  7 15 12 45  0.00000000
P  1  15895.404049   3507.310096  20723.330704    172.912395                    
V  1   9088.210480  25369.913447 -10752.483579     -0.018686                    
P  2  18148.950819   8637.054762  17942.988585   -575.917974                    
V  2   8546.221930  20004.819824 -18657.212673      0.038716                    
P  3  19705.585945  -8058.518926  15663.057296   -231.557912                    
V  3 -11147.579616  16873.433357  22617.081778      0.158533                    
P  4  25704.217211   -309.821728  -6907.627321     96.448912                    
V  4   8181.827269   4003.379503  30102.645803      0.108822                    
P  5 -13088.115307  -7740.775481 -21961.870901   -134.981399                    
V  5  15861.245762 -22376.543303  -1470.460549     -0.014659                    
P  6  -4314.810964 -25009.919222   7725.668305    577.689505                    
V  6   5270.811188   8383.379505  30401.787110     -0.035636                    
P  7   9914.611820 -13631.777946 -19941.361742    124.450031                    
V  7  11172.285758  24110.094530 -11154.106193     -0.108976                    
P  8  25547.544218   6378.812220  -4912.684043   -132.299541                    
V  8  -6320.671444   1784.783182 -30633.354561     -0.019472                    
P  9  20416.921914  -8201.383582 -14982.047999   -111.636440                    
V  9  18505.193294   4314.834465  22929.247855      0.093385                    
P 10  -8974.599060  22682.197536  10288.799122    -45.250783                    
V 10  -9638.721032   8816.056092 -28636.630796     -0.014910                    
P 11 -12825.164926 -22182.790508  -7065.195634   -277.039465                    
V 11   -558.699893  -9294.503123  30115.724315     -0.162054                    
P 12 -19454.859050   3530.552018  17419.521529   -400.969299                    
V 12  13933.762028 -17984.937531  18984.151536     -0.046127                    
P 13 -20410.948341 -13520.859401 -10741.424013    547.406664                    
V 13  13316.101181   1747.734789 -27774.490754      0.049797                    
P 14  12023.833314 -22468.489342   7202.202612    123.018427                    
V 14   8308.094429  -5020.430525 -29765.502524      0.120318                    
P 15 -26114.681931  -3510.283028  -4765.948054     58.240957                    
V 15   5456.294479  -3332.113411 -30193.835100      0.035607                    
P 16   9294.968532  12285.883643 -21908.230103   -480.492640                    
V 16 -18879.999789  19473.892872   3395.030797      0.044224                    
P 17   4583.504985 -14478.538437  22224.730618    720.992800                    
V 17  26569.284663   5547.429460  -1799.711078      0.007248                    
P 18  -7907.205557  16272.315730 -19387.881228   -346.368067                    
V 18  -9901.258715 -22591.234565 -15084.212602     -0.142002                    
P 19  -4289.918440 -15714.487898  20828.487014    344.200532                    
V 19  26171.251466   5975.032323   9482.318606      0.051411                    
P 20  -6520.106611 -17039.211180 -19330.302723    422.555817                    
V 20  12875.081996 -21002.487848  13958.729612     -0.020366                    
P 21  18533.364032  11921.141610  15968.502974    152.124511                    
V 21   7483.438821  17463.958785 -21621.128516     -0.004321                    
P 22   7721.770580  16130.039088  20140.563531    513.078176                    
V 22 -24128.431819  -4530.374699  13025.154158      0.055177                    
P 23 -16756.861733  20394.843353  -1999.844990     43.532091                    
V 23   -498.543283  -3541.873822 -32034.769090      0.041637                    
P 24 -18332.926100  -7192.896536  17643.600232   -258.538209                    
V 24  -8789.065893 -21413.545047 -17084.230532     -0.122999                    
P 25 -19421.199594  15723.300396   8288.569468    456.249201                    
V 25   4219.988339 -10669.699708  29297.164612      0.023484                    
P 26    950.404177  20598.733257 -16668.774192    236.390424                    
V 26 -13926.026755  16130.286298  19618.998268     -0.011507                    
P 27  18272.535163  12885.756253 -14896.425333     -3.550971                    
V 27 -18344.592962   -927.901757 -23307.462213     -0.075977                    
P 28   3737.325106  24571.809215   9350.542838     82.449545                    
V 28  -7146.107986  -9851.225971  28677.762020     -0.013828                    
P 29 -21864.013184   5097.159454 -14324.503970   -605.550727                    
V 29 -17241.123297  -5535.106493  24336.658407     -0.008927                    
P 30   3275.113381 -21579.581700 -14831.898387   -504.104571                    
V 30   9656.377688  16857.571102 -22474.374679      0.027796                    
P 31  10505.291788  24077.699294  -1907.272682   -220.093298                    
V 31  -2381.573545   3292.869324  31756.396295     -0.006875                    
P 32   -663.093347  15342.414848  21860.103779   -521.558016                    
V 32 -27084.763604  -3552.346249   1491.296381     -0.076440                    
EOF
